# Made by eph2tle, compiled Jul 15 2019 11:51:54
# Run at Sat Jul 20 14:39:06 2019
#
#    The following TLEs (Two-Line Elements) were generated by fitting
# a numerically-integrated ephemeris,  based on the orbit given below,
# to the SDP4/SGP4 models.  Each TLE is good for the interval between
# its epoch and the epoch of the subsequent TLE (usually one day).
# The maximum deviation between the numerically integrated ephemerides
# and the TLE-based ephemeris, in kilometers,  is given for each TLE
# as the "worst residual".
#
#    This fitting is done using the 'eph2tle' code packaged with Find_Orb.
# The code has details on how the TLEs were computed :
#
#    https://github.com/Bill-Gray/find_orb/eph2tle.cpp
#
#    Be warned:  the error given is that between the numerically
# integrated ephems and the TLE model.  There will usually be at
# least some additional difference between the ephems and the actual
# motion of the satellite,  especially if the ephemerides are based
# on a short arc.  If the following orbital elements say something
# like "[based on] 10 observations 2015 Jan. 1-13",  and the TLEs
# are for 2015 May,  the extrapolation may be tenuous at best.  If
# your application requires a specific level of accuracy,  you may
# want to contact me;  I can give you some idea as to the fit of the
# underlying data (and possibly TLEs based on newer data).
#
#   You can usually find the underlying observational data,  and the
# fitted orbit,  residuals,  ephemerides,  and sometimes some comments
# about the object,  among the pages listed at
#
#    https://www.projectpluto.com/pluto/mpecs/pseudo.htm
#
#    WARNING:  The TLEs in this file are all fitted to SGP4,  even if
# they're in deep space (longer than a 225 minute period).  This is only
# done in cases where SDP4 fails or fits the ephemeris poorly.  The problem
# is that,  while SGP4 fits here,  many programs don't actually look at the
# ephemeris type code byte.  They will produce garbage results when using
# these TLEs.  (Sat_ID and all programs by me,  Bill Gray,  will use these
# TLEs correctly.  But I may be the only one doing that.)
#
#    Also,  if you use a TLE outside the "correct" time range (between
# its MJD and that of the next TLE),  all bets are off.  I've carefully
# computed and minimized the worst error over the "correct" time frame,
# but the ephemeris may (or may not) diverge wildly outside of it.
#
# Ephem range: 58678.000000 58757.000000 1.000000
# Created Sat Jul 20 14:38:57 2019
# Ephemeris start: 14 Jul 2019  0:00:00
# Ephemeris end:    1 Oct 2019  0:00:00
# Times are all TDT
# Positions/velocities are in equatorial J2000
# Orbital elements:  2019-040A = NORAD 44432 = Spektr-RG
#    Perigee 2019 Jul 13.541155 +/- 3.22e-6 TT = 12:59:15 (JD 2458678.041155)
# Epoch 2019 Jul 20.0 TT = JDT 2458684.5                        Gray
# M  38.9228895636 +/- 0.0032         (J2000 equator)
# n   6.0262923607 +/- 0.000504       Peri.    5.7213284 +/- 0.00023
# a645510.59464 +/- 36                Node   126.4786894 +/- 0.00006
# e   0.986657223 +/- 5.94e-7         Incl.   59.0220400 +/- 0.00013
# P  59.74d                  H 28.3   G  0.15   U  7.6  
# q 8612.9033846 +/- 0.124    Q 0.0085723699 +/- 4.81e-7
# From 57 observations 2019 July 13-20; mean residual 0".546
# SGP4 only: these TLEs are _not_ fitted to SDP4,  even for
# deep-space TLEs.  These may not work with your software.
#
# 1 NoradU COSPAR   Epoch.epoch     dn/dt/2  d2n/dt2/6 BSTAR    T El# C
# 2 NoradU Inclina RAAscNode Eccent  ArgPeri MeanAno  MeanMotion Rev# C

# Worst residual: 15.04 km
# MJD 58678.000000 (2019 Jul 14  0:00)
2019-040A = NORAD 44432 = Spektr-RG
1 44432U 19040A   19195.49919926  .00000000  00000-0  00000-0 2  5667
2 44432 051.7619 127.8848 9897102 003.8946 005.1297 00.01573210    05

# Worst residual: 29.67 km
# MJD 58679.000000 (2019 Jul 15  0:00)
2019-040A = NORAD 44432 = Spektr-RG
1 44432U 19040A   19196.49919926  .00000000  00000-0  00000-0 2  5668
2 44432 052.7369 127.6167 9895723 004.1416 010.8371 00.01578876    02

# Worst residual: 39.85 km
# MJD 58680.000000 (2019 Jul 16  0:00)
2019-040A = NORAD 44432 = Spektr-RG
1 44432U 19040A   19197.49919926  .00000000  00000-0  00000-0 2  5669
2 44432 054.6393 127.2525 9891199 004.5566 016.7613 00.01599168    08

# Worst residual: 34.87 km
# MJD 58681.000000 (2019 Jul 17  0:00)
2019-040A = NORAD 44432 = Spektr-RG
1 44432U 19040A   19198.49919926  .00000000  00000-0  00000-0 2  5660
2 44432 056.5486 126.9825 9882938 005.0106 023.0384 00.01630978    09

# Worst residual: 21.67 km
# MJD 58682.000000 (2019 Jul 18  0:00)
2019-040A = NORAD 44432 = Spektr-RG
1 44432U 19040A   19199.49919926  .00000000  00000-0  00000-0 2  5661
2 44432 057.6664 126.8625 9874514 005.3380 029.4768 00.01657671    09

# Worst residual: 14.12 km
# MJD 58683.000000 (2019 Jul 19  0:00)
2019-040A = NORAD 44432 = Spektr-RG
1 44432U 19040A   19200.49919926  .00000000  00000-0  00000-0 2  5664
2 44432 058.4264 126.8006 9868557 005.5403 035.8057 00.01671137    00

# Worst residual: 11.85 km
# MJD 58684.000000 (2019 Jul 20  0:00)
2019-040A = NORAD 44432 = Spektr-RG
1 44432U 19040A   19201.49919926  .00000000  00000-0  00000-0 2  5665
2 44432 059.3511 126.7444 9864653 005.6850 041.9321 00.01674081    03

# Worst residual: 12.06 km
# MJD 58685.000000 (2019 Jul 21  0:00)
2019-040A = NORAD 44432 = Spektr-RG
1 44432U 19040A   19202.49919926  .00000000  00000-0  00000-0 2  5666
2 44432 060.6267 126.6887 9861762 005.8124 047.8398 00.01670067    09

# Worst residual: 16.44 km
# MJD 58686.000000 (2019 Jul 22  0:00)
2019-040A = NORAD 44432 = Spektr-RG
1 44432U 19040A   19203.49919926  .00000000  00000-0  00000-0 2  5667
2 44432 062.2732 126.6407 9859092 005.9409 053.5181 00.01661203    08

# Worst residual: 21.22 km
# MJD 58687.000000 (2019 Jul 23  0:00)
2019-040A = NORAD 44432 = Spektr-RG
1 44432U 19040A   19204.49919926  .00000000  00000-0  00000-0 2  5668
2 44432 064.2473 126.6080 9856069 006.0806 058.9498 00.01648628    09

# Worst residual: 25.45 km
# MJD 58688.000000 (2019 Jul 24  0:00)
2019-040A = NORAD 44432 = Spektr-RG
1 44432U 19040A   19205.49919926  .00000000  00000-0  00000-0 2  5669
2 44432 066.4747 126.5955 9852240 006.2383 064.1140 00.01633006    03

# Worst residual: 29.23 km
# MJD 58689.000000 (2019 Jul 25  0:00)
2019-040A = NORAD 44432 = Spektr-RG
1 44432U 19040A   19206.49919926  .00000000  00000-0  00000-0 2  5660
2 44432 068.8557 126.6050 9847231 006.4202 068.9880 00.01614755    04

# Worst residual: 32.57 km
# MJD 58690.000000 (2019 Jul 26  0:00)
2019-040A = NORAD 44432 = Spektr-RG
1 44432U 19040A   19207.49919926  .00000000  00000-0  00000-0 2  5661
2 44432 071.2717 126.6352 9840737 006.6317 073.5499 00.01594186    01

# Worst residual: 35.38 km
# MJD 58691.000000 (2019 Jul 27  0:00)
2019-040A = NORAD 44432 = Spektr-RG
1 44432U 19040A   19208.49919926  .00000000  00000-0  00000-0 2  5662
2 44432 073.5896 126.6822 9832536 006.8765 077.7805 00.01571568    09

# Worst residual: 37.50 km
# MJD 58692.000000 (2019 Jul 28  0:00)
2019-040A = NORAD 44432 = Spektr-RG
1 44432U 19040A   19209.49919926  .00000000  00000-0  00000-0 2  5663
2 44432 075.6690 126.7394 9822514 007.1566 081.6668 00.01547183    04

# Worst residual: 38.76 km
# MJD 58693.000000 (2019 Jul 29  0:00)
2019-040A = NORAD 44432 = Spektr-RG
1 44432U 19040A   19210.49919926  .00000000  00000-0  00000-0 2  5665
2 44432 077.3741 126.7980 9810687 007.4710 085.2066 00.01521374    09

# Worst residual: 38.99 km
# MJD 58694.000000 (2019 Jul 30  0:00)
2019-040A = NORAD 44432 = Spektr-RG
1 44432U 19040A   19211.49919926  .00000000  00000-0  00000-0 2  5666
2 44432 078.5869 126.8480 9797218 007.8163 088.4132 00.01494578    03

# Worst residual: 38.16 km
# MJD 58695.000000 (2019 Jul 31  0:00)
2019-040A = NORAD 44432 = Spektr-RG
1 44432U 19040A   19212.49919926  .00000000  00000-0  00000-0 2  5667
2 44432 079.2235 126.8784 9782395 008.1866 091.3190 00.01467335    07

# Worst residual: 36.11 km
# MJD 58696.000000 (2019 Aug  1  0:00)
2019-040A = NORAD 44432 = Spektr-RG
1 44432U 19040A   19213.49919926  .00000000  00000-0  00000-0 2  5668
2 44432 079.2459 126.8793 9766564 008.5749 093.9766 00.01440260    04

# Worst residual: 37.37 km
# MJD 58697.000000 (2019 Aug  2  0:00)
2019-040A = NORAD 44432 = Spektr-RG
1 44432U 19040A   19214.49919926  .00000000  00000-0  00000-0 2  5669
2 44432 078.6984 126.8450 9749336 008.9830 096.4392 00.01413758    08

# Worst residual: 40.85 km
# MJD 58698.000000 (2019 Aug  3  0:00)
2019-040A = NORAD 44432 = Spektr-RG
1 44432U 19040A   19215.49919926  .00000000  00000-0  00000-0 2  5660
2 44432 077.5785 126.7666 9732287 009.3882 098.8251 00.01388950    07

# Worst residual: 44.30 km
# MJD 58699.000000 (2019 Aug  4  0:00)
2019-040A = NORAD 44432 = Spektr-RG
1 44432U 19040A   19216.49919926  .00000000  00000-0  00000-0 2  5661
2 44432 076.0306 126.6460 9715612 009.7907 101.1544 00.01365808    06

# Worst residual: 44.71 km
# MJD 58700.000000 (2019 Aug  5  0:00)
2019-040A = NORAD 44432 = Spektr-RG
1 44432U 19040A   19217.49919926  .00000000  00000-0  00000-0 2  5662
2 44432 074.1635 126.4851 9696986 010.2092 103.5176 00.01344563    08

# Worst residual: 44.28 km
# MJD 58701.000000 (2019 Aug  6  0:00)
2019-040A = NORAD 44432 = Spektr-RG
1 44432U 19040A   19218.49919926  .00000000  00000-0  00000-0 2  5663
2 44432 072.1920 126.2977 9679398 010.6161 105.9018 00.01325259    01

# Worst residual: 43.04 km
# MJD 58702.000000 (2019 Aug  7  0:00)
2019-040A = NORAD 44432 = Spektr-RG
1 44432U 19040A   19219.49919926  .00000000  00000-0  00000-0 2  5664
2 44432 070.1248 126.0817 9660512 011.0300 108.3739 00.01307885    03

# Worst residual: 41.31 km
# MJD 58703.000000 (2019 Aug  8  0:00)
2019-040A = NORAD 44432 = Spektr-RG
1 44432U 19040A   19220.49919926  .00000000  00000-0  00000-0 2  5666
2 44432 068.0864 125.8479 9641125 011.4426 110.9225 00.01292251    05
